[{"OBJECT_NAME":"KUIPER-00028","OBJECT_ID":"2025-088T","EPOCH":"2026-03-09T08:37:17.959296","MEAN_MOTION":14.79882952,"ECCENTRICITY":9.852e-5,"INCLINATION":51.8996,"RA_OF_ASC_NODE":94.5148,"ARG_OF_PERICENTER":60.3924,"MEAN_ANOMALY":299.7137,"EPHEMERIS_TYPE":0,"CLASSIFICATION_TYPE":"U","NORAD_CAT_ID":63741,"ELEMENT_SET_NO":999,"REV_AT_EPOCH":4801,"BSTAR":4.8463105e-5,"MEAN_MOTION_DOT":1.48e-6,"MEAN_MOTION_DDOT":0},{"OBJECT_NAME":"SL-8 DEB","OBJECT_ID":"1977-119D","EPOCH":"2026-03-08T15:48:40.326048","MEAN_MOTION":14.82591205,"ECCENTRICITY":0.00067755,"INCLINATION":74.0147,"RA_OF_ASC_NODE":289.9541,"ARG_OF_PERICENTER":330.8013,"MEAN_ANOMALY":29.2785,"EPHEMERIS_TYPE":0,"CLASSIFICATION_TYPE":"U","NORAD_CAT_ID":10525,"ELEMENT_SET_NO":999,"REV_AT_EPOCH":54919,"BSTAR":0.00078698543,"MEAN_MOTION_DOT":6.307e-5,"MEAN_MOTION_DDOT":0}]
